GSAT0101 (PRN E11)      
1 37846U 11060A   21150.21064738 -.00000100  00000-0  00000-0 0  9998
2 37846  56.8283  31.7790 0003848  19.3977 340.6620  1.70475203 59686
GSAT0102 (PRN E12)      
1 37847U 11060B   21152.77740328 -.00000106  00000-0  00000-0 0  9994
2 37847  56.8304  31.7083 0004060 349.5694 192.0368  1.70475507 59738
GSAT0103 (PRN E19)      
1 38857U 12055A   21153.18473030  .00000067  00000-0  00000-0 0  9995
2 38857  55.0437 152.1569 0005279 270.3892  89.5541  1.70473788 53623
GSAT0104 (PRN E20)      
1 38858U 12055B   21153.15550560  .00000066  00000-0  00000-0 0  9996
2 38858  55.0439 152.1590 0002936 274.2323  85.7378  1.70474114 53629
GSAT0201 (PRN E18)      
1 40128U 14050A   21151.59698775 -.00000110  00000-0  00000-0 0  9994
2 40128  50.4818 347.4932 1649899 110.8102 267.6418  1.85518684 44136
GSAT0202 (PRN E14)      
1 40129U 14050B   21152.93739680 -.00000110  00000-0  00000-0 0  9995
2 40129  50.5123 346.4884 1647099 111.6654 266.6797  1.85519418 46321
GSAT0203 (PRN E26)      
1 40544U 15017A   21151.75198867 -.00000105  00000-0  00000-0 0  9999
2 40544  56.6234  31.8224 0001756 279.6493  80.3728  1.70474513 37790
GSAT0204 (PRN E22)      
1 40545U 15017B   21153.17836602 -.00000106  00000-0  00000-0 0  9995
2 40545  56.6300  31.7941 0001053 246.1877 113.8422  1.70475682   864
GSAT0205 (PRN E24)      
1 40889U 15045A   21153.53313020 -.00000055  00000-0  00000-0 0  9994
2 40889  55.8866 272.4522 0003678  19.2475 340.7606  1.70475665 35639
GSAT0206 (PRN E30)      
1 40890U 15045B   21152.57946134 -.00000051  00000-0  00000+0 0  9992
2 40890  55.8861 272.4748 0001908   8.6458 351.3535  1.70475648 35644
GSAT0209 (PRN E09)      
1 41174U 15079A   21152.75380370  .00000064  00000-0  00000+0 0  9992
2 41174  55.0589 151.8693 0005826 303.7674  56.1789  1.70473335 33965
GSAT0208 (PRN E08)      
1 41175U 15079B   21152.97347988  .00000065  00000-0  00000-0 0  9997
2 41175  55.0567 151.8622 0005035 302.8824  57.0718  1.70473433 33807
GSAT0211 (PRN E02)      
1 41549U 16030A   21153.09444442 -.00000053  00000-0  00000-0 0  9995
2 41549  56.0296 272.3534 0002745 322.1706  37.8053  1.70475366 31287
GSAT0210 (PRN E01)      
1 41550U 16030B   21153.38724640 -.00000054  00000-0  00000-0 0  9991
2 41550  56.0291 272.3470 0002302 275.2549  84.7134  1.70475533 31282
GSAT0207 (PRN E07)      
1 41859U 16069A   21153.04643955  .00000065  00000-0  00000-0 0  9998
2 41859  54.7184 152.1367 0005906 293.1340  66.8070  1.70473329 28019
GSAT0212 (PRN E03)      
1 41860U 16069B   21152.89986203  .00000064  00000-0  00000-0 0  9997
2 41860  54.7154 152.1390 0004604 308.9881  50.9737  1.70473296 28267
GSAT0213 (PRN E04)      
1 41861U 16069C   21153.26553228  .00000066  00000-0  00000-0 0  9999
2 41861  54.7180 152.1334 0005390 276.7946  83.1481  1.70473421 28132
GSAT0214 (PRN E05)      
1 41862U 16069D   21153.41256113  .00000067  00000-0  00000-0 0  9991
2 41862  54.7164 152.1244 0004534 281.1163  78.8371  1.70473390 28263
GSAT0215 (PRN E21)      
1 43055U 17079A   21153.31678752 -.00000054  00000-0  00000-0 0  9992
2 43055  56.0044 272.1857 0001750 264.7455  95.2295  1.70474606 21602
GSAT0216 (PRN E25)      
1 43056U 17079B   21153.02271117 -.00000053  00000-0  00000-0 0  9994
2 43056  56.0052 272.1934 0003524 271.7391  88.2161  1.70474729 21617
GSAT0217 (PRN E27)      
1 43057U 17079C   21152.65625991 -.00000051  00000-0  00000-0 0  9994
2 43057  56.0022 272.2036 0003052 287.2602  72.7026  1.70474655 21595
GSAT0218 (PRN E31)      
1 43058U 17079D   21153.46284896 -.00000055  00000-0  00000-0 0  9994
2 43058  56.0033 272.1789 0004003 267.0454  92.9035  1.70474665 21630
GSAT0221 (PRN E15)      
1 43564U 18060A   21152.18835249 -.00000105  00000-0  00000-0 0  9995
2 43564  57.0089  31.5282 0002896 301.4308  58.5829  1.70475528 17765
GSAT0222 (PRN E33)      
1 43565U 18060B   21150.64844339 -.00000101  00000-0  00000-0 0  9991
2 43565  57.0099  31.5701 0002984 314.7529  45.2672  1.70475468 17787
GSAT0219 (PRN E36)      
1 43566U 18060C   21152.04218892 -.00000105  00000-0  00000-0 0  9991
2 43566  57.0109  31.5339 0002707 319.9229  40.0993  1.70475534 17787
GSAT0220 (PRN E13)      
1 43567U 18060D   21152.26202160 -.00000105  00000-0  00000-0 0  9997
2 43567  57.0112  31.5277 0002522 313.0656  46.9552  1.70475447 17775
